STARLINK-3739           
1 52266U 22041F   22116.58335648 -.00876089  00000+0 -51471-2 0  9993
2 52266  53.2173 350.6725 0001116  72.2141 199.6846 15.79835810  2000
STARLINK-3748           
1 52267U 22041G   22116.58335648 -.00876013  00000+0 -51416-2 0  9990
2 52267  53.2173 350.6724 0001093  80.0505 192.1734 15.79857155  2005
STARLINK-3746           
1 52268U 22041H   22116.58335648 -.00876109  00000+0 -51266-2 0  9990
2 52268  53.2173 350.6698 0001114  74.4374 198.7357 15.79922976  2008
STARLINK-3791           
1 52269U 22041J   22116.58335648 -.00876098  00000+0 -51369-2 0  9992
2 52269  53.2173 350.6717 0001098  78.3100 194.2295 15.79879281  2004
STARLINK-3804           
1 52270U 22041K   22116.58335648 -.00876119  00000+0 -51166-2 0  9993
2 52270  53.2173 350.6684 0001100  75.7503 198.0658 15.79965719  1995
STARLINK-3788           
1 52271U 22041L   22116.58335648 -.00876048  00000+0 -51315-2 0  9991
2 52271  53.2173 350.6709 0001114  77.7152 195.1480 15.79900582  2002
STARLINK-3781           
1 52272U 22041M   22116.58335648 -.00876138  00000+0 -51066-2 0  9995
2 52272  53.2173 350.6670 0001108  73.3395 201.1139 15.80008598  2001
STARLINK-3782           
1 52273U 22041N   22116.58335648 -.00876135  00000+0 -51220-2 0  9995
2 52273  53.2173 350.6694 0001071  80.3026 193.2029 15.79943553  2002
STARLINK-3790           
1 52274U 22041P   22116.58335648 -.00876128  00000+0 -50913-2 0  9996
2 52274  53.2173 350.6649 0001116  76.0295 199.3683 15.80073265  2002
STARLINK-3784           
1 52275U 22041Q   22116.58335648 -.00876106  00000+0 -51114-2 0  9997
2 52275  53.2173 350.6680 0001114  76.0256 198.1075 15.79987298  1990
STARLINK-3778           
1 52276U 22041R   22116.58335648 -.00876174  00000+0 -50814-2 0  9999
2 52276  53.2173 350.6634 0001123  72.5628 203.4578 15.80116604  2002
STARLINK-3787           
1 52277U 22041S   22116.58335648 -.00876169  00000+0 -51017-2 0  9990
2 52277  53.2173 350.6665 0001137  70.5557 204.2157 15.80029988  2001
STARLINK-3780           
1 52278U 22041T   22116.58335648 -.00876117  00000+0 -50762-2 0  9990
2 52278  53.2173 350.6627 0001086  80.1842 196.1555 15.80137544  2006
STARLINK-3686           
1 52279U 22041U   22116.58335648 -.00876228  00000+0 -50969-2 0  9993
2 52279  53.2173 350.6658 0001150  68.0079 207.0746 15.80051874  2005
STARLINK-3764           
1 52280U 22041V   22116.58335648 -.00876271  00000+0 -50618-2 0  9994
2 52280  53.2173 350.6607 0001149  66.3748 210.8888 15.80202657  2009
STARLINK-3779           
1 52281U 22041W   22116.58335648 -.00876132  00000+0 -50864-2 0  9994
2 52281  53.2173 350.6644 0001103  74.7220 200.9953 15.80094331  2000
STARLINK-3783           
1 52282U 22041X   22116.58335648 -.00876161  00000+0 -50512-2 0  9997
2 52282  53.2173 350.6593 0001093  75.8351 202.0462 15.80245492  2003
STARLINK-3789           
1 52283U 22041Y   22116.58335648 -.00876097  00000+0 -50709-2 0  9994
2 52283  53.2173 350.6624 0001097  81.9782 194.6667 15.80159508  2004
STARLINK-3561           
1 52284U 22041Z   22116.58335648 -.00876237  00000+0 -50416-2 0  9996
2 52284  53.2173 350.6579 0001124  71.9038 206.5918 15.80288423  2009
STARLINK-3775           
1 52285U 22041AA  22116.58335648 -.00876194  00000+0 -50665-2 0  9995
2 52285  53.2173 350.6616 0001106  73.6309 203.3269 15.80180869  2001
STARLINK-3802           
1 52286U 22041AB  22116.58335648 -.00876154  00000+0 -50311-2 0  9990
2 52286  53.2173 350.6567 0001079  82.2464 196.8556 15.80331599  2007
STARLINK-3822           
1 52287U 22041AC  22116.58335648 -.00876180  00000+0 -50564-2 0  9990
2 52287  53.2173 350.6603 0001121  73.4685 204.1115 15.80223508  1412
STARLINK-3776           
1 52288U 22041AD  22116.58335648 -.00876171  00000+0 -50264-2 0  9998
2 52288  53.2173 350.6560 0001087  78.1747 201.2425 15.80352202  1413
STARLINK-3751           
1 52289U 22041AE  22116.58335648 -.00876349  00000+0 -50473-2 0  9998
2 52289  53.2173 350.6590 0001147  64.8024 213.3891 15.80266844  2007
STARLINK-3772           
1 52290U 22041AF  22116.58335648 -.00876531  00000+0 -50133-2 0  9996
2 52290  53.2173 350.6541 0001205  58.6924 221.6241 15.80417284  1994
STARLINK-3773           
1 52291U 22041AG  22116.58335648 -.00876145  00000+0 -50361-2 0  9991
2 52291  53.2173 350.6577 0001104  78.3541 200.4487 15.80309689  2005
STARLINK-3753           
1 52292U 22041AH  22116.58335648 -.00876400  00000+0 -50029-2 0  9997
2 52292  53.2173 350.6528 0001130  66.6747 214.2542 15.80459213  2003
STARLINK-3771           
1 52293U 22041AJ  22116.58335648 -.00876269  00000+0 -50219-2 0  9992
2 52293  53.2173 350.6557 0001130  70.5215 209.1973 15.80373821  2001
STARLINK-3777           
1 52294U 22041AK  22116.58335648 -.00876235  00000+0 -49970-2 0  9998
2 52294  53.2173 350.6521 0001104  75.0128 206.2171 15.80480406  2003
STARLINK-3765           
1 52295U 22041AL  22116.58335648 -.00876496  00000+0 -50183-2 0  9996
2 52295  53.2173 350.6550 0001176  59.8224 220.2031 15.80395071  1410
STARLINK-3766           
1 52296U 22041AM  22116.58335648 -.00876324  00000+0 -49827-2 0  9990
2 52296  53.2173 350.6502 0001116  71.1719 210.9528 15.80544534  2001
STARLINK-3758           
1 52297U 22041AN  22116.58335648 -.00876366  00000+0 -50077-2 0  9996
2 52297  53.2173 350.6537 0001122  67.7937 212.8372 15.80437660  2009
STARLINK-3760           
1 52298U 22041AP  22116.58335648 -.00876404  00000+0 -49784-2 0  9993
2 52298  53.2174 350.6495 0001116  69.2702 213.1601 15.80565315  1999
STARLINK-3759           
1 52299U 22041AQ  22116.58335648 -.00876322  00000+0 -49875-2 0  9994
2 52299  53.2173 350.6512 0001100  72.1786 209.6395 15.80523851  2009
STARLINK-3769           
1 52300U 22041AR  22116.58335648 -.00876346  00000+0 -49683-2 0  9990
2 52300  53.2173 350.6482 0001097  72.0862 210.9389 15.80607673  2000
STARLINK-3768           
1 52301U 22041AS  22116.58335648 -.00876299  00000+0 -49924-2 0  9996
2 52301  53.2173 350.6517 0001117  71.9640 209.5636 15.80501908  1995
STARLINK-3564           
1 52302U 22041AT  22116.58335648 -.00876348  00000+0 -49536-2 0  9991
2 52302  53.2174 350.6462 0001105  73.7083 210.2001 15.80671465  1423
STARLINK-3742           
1 52303U 22041AU  22116.58335648 -.00876413  00000+0 -49734-2 0  9995
2 52303  53.2173 350.6492 0001134  64.7800 217.9405 15.80587038  2004
STARLINK-3744           
1 52304U 22041AV  22116.58335648 -.00876512  00000+0 -49497-2 0  9992
2 52304  53.2173 350.6456 0001152  63.5263 220.6799 15.80692444  2000
STARLINK-3724           
1 52305U 22041AW  22116.58335648 -.00876339  00000+0 -49632-2 0  9991
2 52305  53.2174 350.6479 0001092  73.2279 210.0824 15.80629662  2009
STARLINK-3747           
1 52306U 22041AX  22116.58335648 -.00876429  00000+0 -49443-2 0  9992
2 52306  53.2173 350.6448 0001112  70.9472 213.5452 15.80714061  2000
STARLINK-3755           
1 52307U 22041AY  22116.58335648 -.00876387  00000+0 -49587-2 0  9995
2 52307  53.2174 350.6472 0001117  70.8979 212.7166 15.80650260  1995
STARLINK-3745           
1 52308U 22041AZ  22116.58335648 -.00876335  00000+0 -49339-2 0  9994
2 52308  53.2174 350.6436 0001073  79.7812 205.2835 15.80757172  1418
STARLINK-3756           
1 52309U 22041BA  22116.58335648 -.00876414  00000+0 -49392-2 0  9992
2 52309  53.2174 350.6448 0001109  70.8602 213.9153 15.80735880  2008
STARLINK-3688           
1 52310U 22041BB  22116.58335648 -.00876425  00000+0 -49249-2 0  9997
2 52310  53.2174 350.6423 0001112  71.0232 214.6366 15.80798532  2006
STARLINK-3750           
1 52311U 22041BC  22116.58335648 -.00876460  00000+0 -49297-2 0  9990
2 52311  53.2173 350.6435 0001122  69.4094 215.9449 15.80778440  2009
STARLINK-3752           
1 52312U 22041BD  22116.58335648 -.00876385  00000+0 -49198-2 0  9997
2 52312  53.2174 350.6416 0001091  75.2803 210.6651 15.80819911  2004
STARLINK-3749           
1 52313U 22041BE  22116.58335648 -.00876248  00000+0 -49143-2 0  9996
2 52313  53.2173 350.6416 0001061  85.3512 200.8890 15.80840518  2003
FALCON 9 DEB            
1 52314U 22041BF  22116.14858240  .00196192  24738-4  70627-3 0  9999
2 52314  53.2099 352.7464 0012540 294.3300  65.6417 15.88235282   710
FALCON 9 DEB            
1 52315U 22041BG  22116.14769410  .00205458  26141-4  72625-3 0  9996
2 52315  53.2100 352.7422 0012954 306.8093  53.1744 15.88575473   719
FALCON 9 DEB            
1 52316U 22041BH  22116.14492284  .00218986  28458-4  73592-3 0  9996
2 52316  53.2111 352.7279 0007918 304.0115  56.0160 15.89651670   710
FALCON 9 DEB            
1 52317U 22041BJ  22116.14399679  .00235602  31326-4  77549-3 0  9999
2 52317  53.2112 352.7238 0008882 324.0975  35.9454 15.90025184   713
